NORAD_CAT_ID,OBJECT_NAME,OBJECT_TYPE,EPOCH,MEAN_MOTION,ECCENTRICITY,INCLINATION,RA_OF_ASC_NODE,ARG_OF_PERICENTER,MEAN_ANOMALY,BSTAR,MEAN_MOTION_DOT,MEAN_MOTION_DDOT,TLE_LINE0,TLE_LINE1,TLE_LINE2,SEMIMAJOR_AXIS,PERIOD,APOGEE,PERIGEE,DECAYED
44767,STARLINK-1062,PAYLOAD,2021-02-17 18:20:48,15.06395803,0.000232,53.0565,233.2906,97.7054,262.4198,-0.00017499,-2.887e-05,0.0,0 STARLINK-1062,1 44767U 19074BG  21048.76445221 -.00002887  00000-0 -17499-3 0  9995,2 44767  53.0565 233.2906 0002320  97.7054 262.4198 15.06395803 70142,6925.361,95.592,548.8330000000002,545.62,0.0
44767,STARLINK-1062,PAYLOAD,2021-02-18 11:51:45,15.06383721,0.0002376,53.0568,230.0138,99.7112,260.4145,3.3839e-05,2.22e-06,0.0,0 STARLINK-1062,1 44767U 19074BG  21049.49427408  .00000222  00000-0  33839-4 0  9999,2 44767  53.0568 230.0138 0002376  99.7112 260.4145 15.06383721 70084,6925.398,95.593,548.909,545.618,0.0
44767,STARLINK-1062,PAYLOAD,2021-02-18 21:24:59,15.06384962,0.0002371,53.057,228.2268,100.2332,259.8925,3.7034e-05,2.7000000000000004e-06,0.0,0 STARLINK-1062,1 44767U 19074BG  21049.89235756  .00000270  00000-0  37034-4 0  9990,2 44767  53.0570 228.2268 0002371 100.2332 259.8925 15.06384962 70140,6925.395,95.593,548.9019999999998,545.618,0.0
44767,STARLINK-1062,PAYLOAD,2021-02-19 11:44:51,15.06385852,0.000236,53.057,225.5464,101.019,259.1065,3.4681e-05,2.35e-06,0.0,0 STARLINK-1062,1 44767U 19074BG  21050.48948310  .00000235  00000-0  34681-4 0  9990,2 44767  53.0570 225.5464 0002360 101.0190 259.1065 15.06385852 70234,6925.392,95.593,548.891,545.623,0.0
44767,STARLINK-1062,PAYLOAD,2021-02-20 11:37:57,15.06389359,0.000233,53.0574,221.0788,103.8013,256.3236,4.392600000000001e-05,3.72e-06,0.0,0 STARLINK-1062,1 44767U 19074BG  21051.48468945  .00000372  00000-0  43926-4 0  9996,2 44767  53.0574 221.0788 0002330 103.8013 256.3236 15.06389359 70559,6925.380999999999,95.593,548.86,545.633,0.0
44767,STARLINK-1062,PAYLOAD,2021-02-20 19:35:39,15.06390886,0.0002326,53.0574,219.5897,104.1557,255.9691,4.612600000000001e-05,4.05e-06,0.0,0 STARLINK-1062,1 44767U 19074BG  21051.81642436  .00000405  00000-0  46126-4 0  9994,2 44767  53.0574 219.5897 0002326 104.1557 255.9691 15.06390886 70438,6925.376,95.593,548.852,545.631,0.0
44767,STARLINK-1062,PAYLOAD,2021-02-21 11:31:02,15.06394579,0.0002291,53.0573,216.6116,104.8987,255.2255,7.1013e-05,7.76e-06,0.0,0 STARLINK-1062,1 44767U 19074BG  21052.47989223  .00000776  00000-0  71013-4 0  9999,2 44767  53.0573 216.6116 0002291 104.8987 255.2255 15.06394579 70537,6925.365,95.592,548.817,545.644,0.0
44767,STARLINK-1062,PAYLOAD,2021-02-21 17:53:12,15.06396148,0.0002277,53.0574,215.4204,105.2241,254.9,8.158e-05,9.33e-06,0.0,0 STARLINK-1062,1 44767U 19074BG  21052.74527899  .00000933  00000-0  81580-4 0  9991,2 44767  53.0574 215.4204 0002277 105.2241 254.9000 15.06396148 70746,6925.36,95.592,548.802,545.648,0.0
44767,STARLINK-1062,PAYLOAD,2021-02-22 11:24:07,15.06399956,0.000223,53.0574,212.1442,107.3375,252.7858,7.1539e-05,7.84e-06,0.0,0 STARLINK-1062,1 44767U 19074BG  21053.47509257  .00000784  00000-0  71539-4 0  9997,2 44767  53.0574 212.1442 0002230 107.3375 252.7858 15.06399956 70684,6925.349,95.592,548.758,545.669,0.0
44767,STARLINK-1062,PAYLOAD,2021-02-22 17:46:17,15.06401187,0.0002221,53.0575,210.953,107.6532,252.47,7.812800000000001e-05,8.82e-06,0.0,0 STARLINK-1062,1 44767U 19074BG  21053.74047873  .00000882  00000-0  78128-4 0  9998,2 44767  53.0575 210.9530 0002221 107.6532 252.4700 15.06401187 70725,6925.345,95.592,548.748,545.672,0.0
44767,STARLINK-1062,PAYLOAD,2021-02-23 03:19:31,15.06404039,0.0002199,53.0575,209.1661,108.4981,251.6247,9.0995e-05,1.074e-05,0.0,0 STARLINK-1062,1 44767U 19074BG  21054.13855627  .00001074  00000-0  90995-4 0  9996,2 44767  53.0575 209.1661 0002199 108.4981 251.6247 15.06404039 70952,6925.3359999999975,95.592,548.724,545.678,0.0
44767,STARLINK-1062,PAYLOAD,2021-02-23 11:17:12,15.06405704,0.0002193,53.0576,207.6771,109.1021,251.0205,9.5911e-05,1.147e-05,0.0,0 STARLINK-1062,1 44767U 19074BG  21054.47028796  .00001147  00000-0  95911-4 0  9996,2 44767  53.0576 207.6771 0002193 109.1021 251.0205 15.06405704 70830,6925.331,95.592,548.715,545.677,0.0
44767,STARLINK-1062,PAYLOAD,2021-02-23 17:39:22,15.06407971,0.0002172,53.0575,206.4855,109.424,250.6983,9.3404e-05,1.11e-05,0.0,0 STARLINK-1062,1 44767U 19074BG  21054.73567262  .00001110  00000-0  93404-4 0  9996,2 44767  53.0575 206.4855 0002172 109.4240 250.6983 15.06407971 70872,6925.324000000001,95.592,548.693,545.685,0.0
44767,STARLINK-1062,PAYLOAD,2021-02-24 09:34:45,15.06411029,0.000214,53.0576,203.5072,110.4582,249.6637,9.6241e-05,1.152e-05,0.0,0 STARLINK-1062,1 44767U 19074BG  21055.39913400  .00001152  00000-0  96241-4 0  9996,2 44767  53.0576 203.5072 0002140 110.4582 249.6637 15.06411029 71142,6925.315,95.591,548.6619999999998,545.698,0.0
44767,STARLINK-1062,PAYLOAD,2021-02-24 15:56:54,15.06413608,0.0002138,53.0576,202.3161,111.1226,248.9992,0.00011103,1.373e-05,0.0,0 STARLINK-1062,1 44767U 19074BG  21055.66451697  .00001373  00000-0  11103-3 0  9999,2 44767  53.0576 202.3161 0002138 111.1226 248.9992 15.06413608 71015,6925.307,95.591,548.6519999999998,545.691,0.0
44767,STARLINK-1062,PAYLOAD,2021-02-25 09:27:50,15.06403398,0.0002078,53.0574,199.0401,109.7677,250.3536,-1.8693e-05,-5.6e-06,0.0,0 STARLINK-1062,1 44767U 19074BG  21056.39433781 -.00000560  00000-0 -18693-4 0  9995,2 44767  53.0574 199.0401 0002078 109.7677 250.3536 15.06403398 71294,6925.3380000000025,95.592,548.6419999999998,545.764,0.0
44767,STARLINK-1062,PAYLOAD,2021-02-25 12:38:55,15.06402872,0.0002123,53.0574,198.445,107.933,252.189,-4.6219e-05,-9.7e-06,0.0,0 STARLINK-1062,1 44767U 19074BG  21056.52703199 -.00000970  00000-0 -46219-4 0  9993,2 44767  53.0574 198.4450 0002123 107.9330 252.1890 15.06402872 71141,6925.34,95.592,548.675,545.735,0.0
44767,STARLINK-1062,PAYLOAD,2021-02-25 17:25:32,15.0640286,0.0002063,53.0575,197.5504,114.676,245.4444,-4.428e-05,-9.41e-06,0.0,0 STARLINK-1062,1 44767U 19074BG  21056.72607105 -.00000941  00000-0 -44280-4 0  9999,2 44767  53.0575 197.5504 0002063 114.6760 245.4444 15.06402860 71177,6925.34,95.592,548.633,545.776,0.0
44767,STARLINK-1062,PAYLOAD,2021-02-26 09:20:55,15.064056,0.0001978,53.0576,194.5729,114.4601,245.6594,-2.6681e-05,-6.79e-06,0.0,0 STARLINK-1062,1 44767U 19074BG  21057.38953402 -.00000679  00000-0 -26681-4 0  9999,2 44767  53.0576 194.5729 0001978 114.4601 245.6594 15.06405600 71274,6925.331,95.592,548.566,545.827,0.0
44767,STARLINK-1062,PAYLOAD,2021-02-26 18:54:09,15.06406691,0.0001962,53.0575,192.7859,115.0068,245.1125,-1.0517e-05,-4.38e-06,0.0,0 STARLINK-1062,1 44767U 19074BG  21057.78761210 -.00000438  00000-0 -10517-4 0  9991,2 44767  53.0575 192.7859 0001962 115.0068 245.1125 15.06406691 71506,6925.328,95.592,548.552,545.8340000000002,0.0
44767,STARLINK-1062,PAYLOAD,2021-02-27 10:49:34,15.063897699999998,0.0001324,53.0573,189.8079,109.1967,250.9166,-2.1653e-05,-6.04e-06,0.0,0 STARLINK-1062,1 44767U 19074BG  21058.45109043 -.00000604  00000-0 -21653-4 0  9994,2 44767  53.0573 189.8079 0001324 109.1967 250.9166 15.06389770 71607,6925.38,95.593,548.1619999999998,546.328,0.0
44767,STARLINK-1062,PAYLOAD,2021-02-27 17:11:43,15.06387204,0.0001703,53.0574,188.6164,116.2347,243.8817,-5.9506e-05,-1.167e-05,0.0,0 STARLINK-1062,1 44767U 19074BG  21058.71648141 -.00001167  00000-0 -59506-4 0  9993,2 44767  53.0574 188.6164 0001703 116.2347 243.8817 15.06387204 71471,6925.388000000001,95.593,548.432,546.073,0.0
44767,STARLINK-1062,PAYLOAD,2021-02-28 12:18:12,15.06388047,0.0001624,53.0575,185.0425,118.5744,241.5408,-7.1721e-05,-1.349e-05,0.0,0 STARLINK-1062,1 44767U 19074BG  21059.51264768 -.00001349  00000-0 -71721-4 0  9996,2 44767  53.0575 185.0425 0001624 118.5744 241.5408 15.06388047 71591,6925.385,95.593,548.375,546.126,0.0
44767,STARLINK-1062,PAYLOAD,2021-02-28 17:04:49,15.06389077,0.000161,53.0575,184.1491,118.827,241.2881,-5.913300000000001e-05,-1.162e-05,0.0,0 STARLINK-1062,1 44767U 19074BG  21059.71168826 -.00001162  00000-0 -59133-4 0  9992,2 44767  53.0575 184.1491 0001610 118.8270 241.2881 15.06389077 71794,6925.382,95.593,548.362,546.132,0.0
44767,STARLINK-1062,PAYLOAD,2021-03-01 10:35:46,15.06381867,0.0001595,53.0576,180.8731,121.0902,239.0243,5.6718e-05,5.63e-06,0.0,0 STARLINK-1062,1 44767U 19074BG  21060.44150864  .00000563  00000-0  56718-4 0  9995,2 44767  53.0576 180.8731 0001595 121.0902 239.0243 15.06381867 71735,6925.404,95.593,548.374,546.165,0.0
44767,STARLINK-1062,PAYLOAD,2021-03-01 16:57:55,15.06383342,0.0001585,53.0576,179.6819,121.0284,239.0861,6.5859e-05,6.99e-06,0.0,0 STARLINK-1062,1 44767U 19074BG  21060.70689764  .00000699  00000-0  65859-4 0  9996,2 44767  53.0576 179.6819 0001585 121.0284 239.0861 15.06383342 71770,6925.4,95.593,548.362,546.1669999999998,0.0
44767,STARLINK-1062,PAYLOAD,2021-03-02 00:55:37,15.06385742,0.000157,53.0576,178.1928,121.8578,238.2564,6.8667e-05,7.41e-06,0.0,0 STARLINK-1062,1 44767U 19074BG  21061.03863298  .00000741  00000-0  68667-4 0  9997,2 44767  53.0576 178.1928 0001570 121.8578 238.2564 15.06385742 71994,6925.392,95.593,548.345,546.17,0.0
44767,STARLINK-1062,PAYLOAD,2021-03-02 15:15:29,15.06388419,0.0001535,53.0577,175.5123,122.8466,237.2671,7.2474e-05,7.98e-06,0.0,0 STARLINK-1062,1 44767U 19074BG  21061.63575694  .00000798  00000-0  72474-4 0  9996,2 44767  53.0577 175.5123 0001535 122.8466 237.2671 15.06388419 71915,6925.384,95.593,548.312,546.186,0.0
44767,STARLINK-1062,PAYLOAD,2021-03-03 10:21:57,15.06393023,0.0001486999999999,53.0578,171.9385,123.9147,236.1984,8.751600000000001e-05,1.022e-05,0.0,0 STARLINK-1062,1 44767U 19074BG  21062.43191924  .00001022  00000-0  87516-4 0  9999,2 44767  53.0578 171.9385 0001487 123.9147 236.1984 15.06393023 72205,6925.37,95.593,548.265,546.205,0.0
